GLOBALSTAR M084 [+]     
1 38040U 11080A   23278.91140083 -.00000094  00000+0  52782-4 0  9994
2 38040  51.9990 136.8215 0001036  90.2696  11.8963 12.62266626544334
GLOBALSTAR M080 [+]     
1 38041U 11080B   23279.37534913 -.00000093  00000+0  60218-4 0  9997
2 38041  52.0041 136.7975 0001234  84.7902  86.9771 12.62265191544655
GLOBALSTAR M082 [+]     
1 38042U 11080C   23278.79948134 -.00000105  00000+0 -62924-5 0  9999
2 38042  52.0062  93.9279 0000223  86.9565 287.3894 12.62271479545151
GLOBALSTAR M092 [+]     
1 38043U 11080D   23279.11751853 -.00000077  00000+0  15088-3 0  9991
2 38043  52.0076 183.3046 0000853  95.5306  45.0800 12.62272663543858
GLOBALSTAR M090 [+]     
1 38044U 11080E   23278.50817505 -.00000109  00000+0 -29429-4 0  9993
2 38044  51.9873  89.4223 0000597  76.4168 293.9849 12.62278109545236
GLOBALSTAR M086 [+]     
1 38045U 11080F   23278.79247542 -.00000101  00000+0  17431-4 0  9994
2 38045  51.9885  89.0593 0001497  53.7305  49.2662 12.62263106545211
GLOBALSTAR M097 [+]     
1 39072U 13005A   23279.42999710 -.00000091  00000+0  71105-4 0  9992
2 39072  52.0074   1.0389 0000399  63.4258 296.6649 12.62270789492620
GLOBALSTAR M093 [+]     
1 39073U 13005B   23279.48262447 -.00000074  00000+0  16481-3 0  9995
2 39073  51.9836 355.1735 0000482  39.3824 320.7077 12.62267212492628
